{
  "type": "FeatureCollection",
  "features": [
    {
      "type": "Feature",
      "properties": {
        "norad_id": 41019,
        "name": "GPS BIIF-11 (PRN 10)",
        "group": "gnss",
        "lat": -24.887909332585775,
        "lon": 20.604307984772273,
        "alt_km": 20233.682822143215,
        "timestamp": "2025-12-06T18:50:10.410397+00:00",
        "meta_object_name": "GPS BIIF-11 (PRN 10)",
        "meta_object_id": "2015-062A",
        "meta_epoch": "2025-12-04T19:59:07.703520",
        "meta_mean_motion": 2.0056698,
        "meta_eccentricity": 0.0110602,
        "meta_inclination": 56.8265,
        "meta_ra_of_asc_node": 38.3083,
        "meta_arg_of_pericenter": 229.7198,
        "meta_mean_anomaly": 129.3626,
        "meta_ephemeris_type": 0,
        "meta_classification_type": "U",
        "meta_norad_cat_id": 41019,
        "meta_element_set_no": 999,
        "meta_rev_at_epoch": 7393,
        "meta_bstar": 0,
        "meta_mean_motion_dot": -6.6e-07,
        "meta_mean_motion_ddot": 0,
        "tle_line1": "1 41019U 15062A   25338.83272805 -.00000066  00000+0  00000+0 0  9996",
        "tle_line2": "2 41019  56.8265  38.3083 0110602 229.7198 129.3626  2.00566980 73939"
      },
      "geometry": {
        "type": "Point",
        "coordinates": [
          20.604307984772273,
          -24.887909332585775
        ]
      }
    },
    {
      "type": "Feature",
      "properties": {
        "norad_id": 41028,
        "name": "GSAT-15 (GAGAN/PRN 139)",
        "group": "gnss",
        "lat": 0.022100983869344098,
        "lon": 91.83581590290667,
        "alt_km": 35796.70469815039,
        "timestamp": "2025-12-06T18:50:10.410410+00:00",
        "meta_object_name": "GSAT-15 (GAGAN/PRN 139)",
        "meta_object_id": "2015-065A",
        "meta_epoch": "2025-12-06T03:16:38.682912",
        "meta_mean_motion": 1.00271233,
        "meta_eccentricity": 0.00030015,
        "meta_inclination": 0.0389,
        "meta_ra_of_asc_node": 95.2462,
        "meta_arg_of_pericenter": 141.3872,
        "meta_mean_anomaly": 341.2131,
        "meta_ephemeris_type": 0,
        "meta_classification_type": "U",
        "meta_norad_cat_id": 41028,
        "meta_element_set_no": 999,
        "meta_rev_at_epoch": 3686,
        "meta_bstar": 0,
        "meta_mean_motion_dot": -2.49e-06,
        "meta_mean_motion_ddot": 0,
        "tle_line1": "1 41028U 15065A   25340.13655883 -.00000249  00000+0  00000+0 0  9999",
        "tle_line2": "2 41028   0.0389  95.2462 0003001 141.3872 341.2131  1.00271233 36862"
      },
      "geometry": {
        "type": "Point",
        "coordinates": [
          91.83581590290667,
          0.022100983869344098
        ]
      }
    },
    {
      "type": "Feature",
      "properties": {
        "norad_id": 41174,
        "name": "GSAT0209 (GALILEO 12)",
        "group": "gnss",
        "lat": 55.71116370184696,
        "lon": -164.58298398560717,
        "alt_km": 23215.979589860675,
        "timestamp": "2025-12-06T18:50:10.410423+00:00",
        "meta_object_name": "GSAT0209 (GALILEO 12)",
        "meta_object_id": "2015-079A",
        "meta_epoch": "2025-12-01T22:43:10.411392",
        "meta_mean_motion": 1.70474306,
        "meta_eccentricity": 0.0002352,
        "meta_inclination": 55.7062,
        "meta_ra_of_asc_node": 106.6773,
        "meta_arg_of_pericenter": 357.4206,
        "meta_mean_anomaly": 2.5431,
        "meta_ephemeris_type": 0,
        "meta_classification_type": "U",
        "meta_norad_cat_id": 41174,
        "meta_element_set_no": 999,
        "meta_rev_at_epoch": 6141,
        "meta_bstar": 0,
        "meta_mean_motion_dot": 3.5e-07,
        "meta_mean_motion_ddot": 0,
        "tle_line1": "1 41174U 15079A   25335.94664828  .00000035  00000+0  00000+0 0  9990",
        "tle_line2": "2 41174  55.7062 106.6773 0002352 357.4206   2.5431  1.70474306 61412"
      },
      "geometry": {
        "type": "Point",
        "coordinates": [
          -164.58298398560717,
          55.71116370184696
        ]
      }
    },
    {
      "type": "Feature",
      "properties": {
        "norad_id": 41175,
        "name": "GSAT0208 (GALILEO 11)",
        "group": "gnss",
        "lat": -36.322253023326134,
        "lon": 76.44651260360861,
        "alt_km": 23223.195242260277,
        "timestamp": "2025-12-06T18:50:10.410434+00:00",
        "meta_object_name": "GSAT0208 (GALILEO 11)",
        "meta_object_id": "2015-079B",
        "meta_epoch": "2025-12-05T16:28:14.683584",
        "meta_mean_motion": 1.70474159,
        "meta_eccentricity": 0.00019173,
        "meta_inclination": 55.707,
        "meta_ra_of_asc_node": 106.5718,
        "meta_arg_of_pericenter": 7.3332,
        "meta_mean_anomaly": 352.6208,
        "meta_ephemeris_type": 0,
        "meta_classification_type": "U",
        "meta_norad_cat_id": 41175,
        "meta_element_set_no": 999,
        "meta_rev_at_epoch": 6189,
        "meta_bstar": 0,
        "meta_mean_motion_dot": 8e-08,
        "meta_mean_motion_ddot": 0,
        "tle_line1": "1 41175U 15079B   25339.68628106  .00000008  00000+0  00000+0 0  9995",
        "tle_line2": "2 41175  55.7070 106.5718 0001917   7.3332 352.6208  1.70474159 61896"
      },
      "geometry": {
        "type": "Point",
        "coordinates": [
          76.44651260360861,
          -36.322253023326134
        ]
      }
    },
    {
      "type": "Feature",
      "properties": {
        "norad_id": 41241,
        "name": "IRNSS-1E",
        "group": "gnss",
        "lat": 23.54199179849097,
        "lon": 104.98926037138375,
        "alt_km": 35852.454064946956,
        "timestamp": "2025-12-06T18:50:10.410448+00:00",
        "meta_object_name": "IRNSS-1E",
        "meta_object_id": "2016-003A",
        "meta_epoch": "2025-12-05T15:56:23.100864",
        "meta_mean_motion": 1.00276837,
        "meta_eccentricity": 0.00219002,
        "meta_inclination": 32.8101,
        "meta_ra_of_asc_node": 62.5566,
        "meta_arg_of_pericenter": 186.7894,
        "meta_mean_anomaly": 176.2103,
        "meta_ephemeris_type": 0,
        "meta_classification_type": "U",
        "meta_norad_cat_id": 41241,
        "meta_element_set_no": 999,
        "meta_rev_at_epoch": 3614,
        "meta_bstar": 0,
        "meta_mean_motion_dot": -3.14e-06,
        "meta_mean_motion_ddot": 0,
        "tle_line1": "1 41241U 16003A   25339.66415626 -.00000314  00000+0  00000+0 0  9997",
        "tle_line2": "2 41241  32.8101  62.5566 0021900 186.7894 176.2103  1.00276837 36142"
      },
      "geometry": {
        "type": "Point",
        "coordinates": [
          104.98926037138375,
          23.54199179849097
        ]
      }
    },
    {
      "type": "Feature",
      "properties": {
        "norad_id": 41328,
        "name": "GPS BIIF-12 (PRN 32)",
        "group": "gnss",
        "lat": -55.413901071187354,
        "lon": 6.409778440058587,
        "alt_km": 19969.569912861152,
        "timestamp": "2025-12-06T18:50:10.410530+00:00",
        "meta_object_name": "GPS BIIF-12 (PRN 32)",
        "meta_object_id": "2016-007A",
        "meta_epoch": "2025-12-05T09:55:37.612128",
        "meta_mean_motion": 2.00560998,
        "meta_eccentricity": 0.00917952,
        "meta_inclination": 55.402,
        "meta_ra_of_asc_node": 97.1478,
        "meta_arg_of_pericenter": 243.3887,
        "meta_mean_anomaly": 115.6411,
        "meta_ephemeris_type": 0,
        "meta_classification_type": "U",
        "meta_norad_cat_id": 41328,
        "meta_element_set_no": 999,
        "meta_rev_at_epoch": 7195,
        "meta_bstar": 0,
        "meta_mean_motion_dot": -1.1e-07,
        "meta_mean_motion_ddot": 0,
        "tle_line1": "1 41328U 16007A   25339.41362977 -.00000011  00000+0  00000+0 0  9994",
        "tle_line2": "2 41328  55.4020  97.1478 0091795 243.3887 115.6411  2.00560998 71958"
      },
      "geometry": {
        "type": "Point",
        "coordinates": [
          6.409778440058587,
          -55.413901071187354
        ]
      }
    },
    {
      "type": "Feature",
      "properties": {
        "norad_id": 41330,
        "name": "COSMOS 2514 (751)",
        "group": "gnss",
        "lat": -63.08985886750578,
        "lon": -106.39652323593847,
        "alt_km": 19120.900310800826,
        "timestamp": "2025-12-06T18:50:10.410558+00:00",
        "meta_object_name": "COSMOS 2514 (751)",
        "meta_object_id": "2016-008A",
        "meta_epoch": "2025-12-05T22:47:49.584480",
        "meta_mean_motion": 2.13102527,
        "meta_eccentricity": 0.00123649,
        "meta_inclination": 65.1377,
        "meta_ra_of_asc_node": 319.6365,
        "meta_arg_of_pericenter": 219.9676,
        "meta_mean_anomaly": 139.9355,
        "meta_ephemeris_type": 0,
        "meta_classification_type": "U",
        "meta_norad_cat_id": 41330,
        "meta_element_set_no": 999,
        "meta_rev_at_epoch": 7650,
        "meta_bstar": 0,
        "meta_mean_motion_dot": -4.9e-07,
        "meta_mean_motion_ddot": 0,
        "tle_line1": "1 41330U 16008A   25339.94987945 -.00000049  00000+0  00000+0 0  9995",
        "tle_line2": "2 41330  65.1377 319.6365 0012364 219.9676 139.9355  2.13102527 76507"
      },
      "geometry": {
        "type": "Point",
        "coordinates": [
          -106.39652323593847,
          -63.08985886750578
        ]
      }
    }
  ]
}